[
  {
    "Name": "Aardvark Amphitheater",
    "Postcode": "AB10 1XG",
    "Code": "AA"
  },
  {
    "Name": "Bear's Box Office",
    "Postcode": "BH1 1AA",
    "Code": "BO"
  },
  {
    "Name": "Cheetah Cineplex",
    "Postcode": "CR0 0XZ",
    "Code": "CC"
  },
  {
    "Name": "Dolphin Drive-In",
    "Postcode": "DL1 1AA",
    "Code": "DD"
  },
  {
    "Name": "Elephant Enclave",
    "Postcode": "EH1 1BB",
    "Code": "EE"
  },
  {
    "Name": "Falcon Film Forum",
    "Postcode": "FY1 1AA",
    "Code": "FF"
  },
  {
    "Name": "Giraffe Globe",
    "Postcode": "G1 1AA",
    "Code": "GG"
  },
  {
    "Name": "Hippo Hippodrome",
    "Postcode": "HP1 1AA",
    "Code": "HH"
  },
  {
    "Name": "Iguana Imax",
    "Postcode": "IP1 1AX",
    "Code": "II"
  },
  {
    "Name": "Jaguar Jewel",
    "Postcode": "JE1 1AA",
    "Code": "JJ"
  },
  {
    "Name": "Koala Kinema",
    "Postcode": "KY1 1AA",
    "Code": "KK"
  },
  {
    "Name": "Lion's Labyrinth",
    "Postcode": "LE1 1AA",
    "Code": "LL"
  },
  {
    "Name": "Monkey Majestic",
    "Postcode": "ML1 1AA",
    "Code": "MM"
  },
  {
    "Name": "Nightingale Nook",
    "Postcode": "NE1 1AA",
    "Code": "NN"
  },
  {
    "Name": "Octopus Opera House",
    "Postcode": "OX1 1AA",
    "Code": "OO"
  },
  {
    "Name": "Penguin Picture Palace",
    "Postcode": "PA1 1AA",
    "Code": "PP"
  },
  {
    "Name": "Quail Quarters",
    "Postcode": "Q1 1AA",
    "Code": "QQ"
  },
  {
    "Name": "Rabbit's Repertory",
    "Postcode": "RG1 1AA",
    "Code": "RR"
  },
  {
    "Name": "Snake Showtime",
    "Postcode": "SW1A 1AA",
    "Code": "SS"
  },
  {
    "Name": "Tiger Twin Theater",
    "Postcode": "TS1 1AA",
    "Code": "TT"
  },
  {
    "Name": "Unicorn Uptown",
    "Postcode": "UB1 1AA",
    "Code": "UU"
  },
  {
    "Name": "Vulture Venue",
    "Postcode": "V1 1AA",
    "Code": "VV"
  },
  {
    "Name": "Whale's West End",
    "Postcode": "WR1 1AA",
    "Code": "WW"
  }
]
